*******************************************************************************
JPL/HORIZONS            3744 Horn-d'Arturo (1983 VE)       2023-Sep-04 11:25:17
Rec #:    3744 (+COV) Soln.date: 2023-Aug-23_13:13:31   # obs: 3998 (1955-2023)
 
IAU76/J2000 helio. ecliptic osc. elements (au, days, deg., period=Julian yrs):
 
  EPOCH=  2457846.5 ! 2017-Apr-03.00 (TDB)         Residual RMS= .26119
   EC= .277662723117535    QR= 1.898414034474169   TP= 2458126.0058742356
   OM= 228.0975232021988   W=  185.7679783374317   IN= 3.753975645759743
   A= 2.628154596516925    MA= 295.3425383032356   ADIST= 3.357895158559681
   PER= 4.26074            N= .231327738           ANGMOM= .026790759
   DAN= 3.35137            DDN= 1.90051            L= 53.8532088
   B= -.3770084            MOID= .90870303         TP= 2018-Jan-07.5058742356
 
Asteroid physical parameters (km, seconds, rotational period in hours):
   GM= n.a.                RAD= 7.379              ROTPER= 6.118
   H= 13.13                G= .150                 B-V= n.a.
                           ALBEDO= .046            STYP= Ch

ASTEROID comments: 
1: soln ref.= JPL#46, OCC=0
2: source=ORB
*******************************************************************************


*******************************************************************************
Ephemeris / API_USER Mon Sep  4 11:25:17 2023 Pasadena, USA      / Horizons
*******************************************************************************
Target body name: 3744 Horn-d'Arturo (1983 VE)    {source: JPL#46}
Center body name: Solar System Barycenter (0)     {source: DE441}
Center-site name: BODY CENTER
*******************************************************************************
Start time      : A.D. 2023-Aug-12 00:00:00.0000 TDB
Stop  time      : A.D. 2023-Aug-13 00:00:00.0000 TDB
Step-size       : 2880 minutes
*******************************************************************************
Center geodetic : 0.0, 0.0, 0.0                   {E-lon(deg),Lat(deg),Alt(km)}
Center cylindric: 0.0, 0.0, 0.0                   {E-lon(deg),Dxy(km),Dz(km)}
Center radii    : (undefined)
Small perturbers: Yes                             {source: SB441-N16}
Output units    : KM-S
Calendar mode   : Mixed Julian/Gregorian
Output type     : GEOMETRIC cartesian states
Output format   : 2 (position and velocity)
Reference frame : Ecliptic of J2000.0
*******************************************************************************
Initial IAU76/J2000 heliocentric ecliptic osculating elements (au, days, deg.):
  EPOCH=  2457846.5 ! 2017-Apr-03.00 (TDB)         Residual RMS= .26119        
   EC= .277662723117535    QR= 1.898414034474169   TP= 2458126.0058742356      
   OM= 228.0975232021988   W=  185.7679783374317   IN= 3.753975645759743       
  Equivalent ICRF heliocentric cartesian coordinates (au, au/d):
   X= 1.835934249659160E+00  Y=-1.622549474846305E+00  Z=-5.246709119100362E-01
  VX= 5.025580956466262E-03 VY= 9.171914720273077E-03 VZ= 3.770454649309309E-03
Asteroid physical parameters (km, seconds, rotational period in hours):        
   GM= n.a.                RAD= 7.379              ROTPER= 6.118               
   H= 13.13                G= .150                 B-V= n.a.                   
                           ALBEDO= .046            STYP= Ch                    
*******************************************************************************
JDTDB
   X     Y     Z
   VX    VY    VZ
*******************************************************************************
$$SOE
2460168.500000000 = A.D. 2023-Aug-12 00:00:00.0000 TDB 
 X =-4.485010086339085E+08 Y =-8.689217584031448E+07 Z =-1.791054373406767E+07
 VX=-6.301506365247359E-01 VY=-1.564200602380476E+01 VZ= 6.555091259599664E-01
$$EOE
*******************************************************************************
 
TIME

  Barycentric Dynamical Time ("TDB" or T_eph) output was requested. This
continuous coordinate time is equivalent to the relativistic proper time
of a clock at rest in a reference frame co-moving with the solar system
barycenter but outside the system's gravity well. It is the independent
variable in the solar system relativistic equations of motion.

  TDB runs at a uniform rate of one SI second per second and is independent
of irregularities in Earth's rotation.
 
CALENDAR SYSTEM

  Mixed calendar mode was active such that calendar dates after AD 1582-Oct-15
(if any) are in the modern Gregorian system. Dates prior to 1582-Oct-5 (if any)
are in the Julian calendar system, which is automatically extended for dates
prior to its adoption on 45-Jan-1 BC.  The Julian calendar is useful for
matching historical dates. The Gregorian calendar more accurately corresponds
to the Earth's orbital motion and seasons. A "Gregorian-only" calendar mode is
available if such physical events are the primary interest.

REFERENCE FRAME AND COORDINATES

  Ecliptic at the standard reference epoch

    Reference epoch: J2000.0
    X-Y plane: adopted Earth orbital plane at the reference epoch
               Note: IAU76 obliquity of 84381.448 arcseconds wrt ICRF X-Y plane
    X-axis   : ICRF
    Z-axis   : perpendicular to the X-Y plane in the directional (+ or -) sense
               of Earth's north pole at the reference epoch.

  Symbol meaning:

    JDTDB    Julian Day Number, Barycentric Dynamical Time
      X      X-component of position vector (km)
      Y      Y-component of position vector (km)
      Z      Z-component of position vector (km)
      VX     X-component of velocity vector (km/sec)                           
      VY     Y-component of velocity vector (km/sec)                           
      VZ     Z-component of velocity vector (km/sec)                           

ABERRATIONS AND CORRECTIONS

 Geometric state vectors have NO corrections or aberrations applied.

Computations by ...

    Solar System Dynamics Group, Horizons On-Line Ephemeris System
    4800 Oak Grove Drive, Jet Propulsion Laboratory
    Pasadena, CA  91109   USA

    General site: https://ssd.jpl.nasa.gov/
    Mailing list: https://ssd.jpl.nasa.gov/email_list.html
    System news : https://ssd.jpl.nasa.gov/horizons/news.html
    User Guide  : https://ssd.jpl.nasa.gov/horizons/manual.html
    Connect     : browser        https://ssd.jpl.nasa.gov/horizons/app.html#/x
                  API            https://ssd-api.jpl.nasa.gov/doc/horizons.html
                  command-line   telnet ssd.jpl.nasa.gov 6775
                  e-mail/batch   https://ssd.jpl.nasa.gov/ftp/ssd/hrzn_batch.txt
                  scripts        https://ssd.jpl.nasa.gov/ftp/ssd/SCRIPTS
    Author      : Jon.D.Giorgini@jpl.nasa.gov
*******************************************************************************
